{
  "type": "FeatureCollection",
  "features": [
    {
      "type": "Feature",
      "properties": {
        "norad_id": 40069,
        "name": "METEOR-M 2",
        "group": "weather",
        "lat": 11.591052848313241,
        "lon": 147.67673127863367,
        "alt_km": 819.0777192627647,
        "timestamp": "2025-12-14T09:36:22.677416+00:00",
        "meta_object_name": "METEOR-M 2",
        "meta_object_id": "2014-037A",
        "meta_epoch": "2025-12-13T15:55:22.315008",
        "meta_mean_motion": 14.21385995,
        "meta_eccentricity": 0.00049859,
        "meta_inclination": 98.4904,
        "meta_ra_of_asc_node": 325.2125,
        "meta_arg_of_pericenter": 206.7525,
        "meta_mean_anomaly": 153.3397,
        "meta_ephemeris_type": 0,
        "meta_classification_type": "U",
        "meta_norad_cat_id": 40069,
        "meta_element_set_no": 999,
        "meta_rev_at_epoch": 59296,
        "meta_bstar": 4.7693351e-05,
        "meta_mean_motion_dot": 6.2e-07,
        "meta_mean_motion_ddot": 0,
        "tle_line1": "1 40069U 14037A   25347.66345272  .00000062  00000+0  47693-4 0  9990",
        "tle_line2": "2 40069  98.4904 325.2125 0004985 206.7525 153.3397 14.21385995592967"
      },
      "geometry": {
        "type": "Point",
        "coordinates": [
          147.67673127863367,
          11.591052848313241
        ]
      }
    },
    {
      "type": "Feature",
      "properties": {
        "norad_id": 40267,
        "name": "HIMAWARI-8",
        "group": "weather",
        "lat": 0.018302992521849408,
        "lon": 8.074314943101466,
        "alt_km": 35785.44292869729,
        "timestamp": "2025-12-14T09:36:22.677427+00:00",
        "meta_object_name": "HIMAWARI-8",
        "meta_object_id": "2014-060A",
        "meta_epoch": "2025-12-13T15:49:52.076928",
        "meta_mean_motion": 1.00273564,
        "meta_eccentricity": 9.701e-05,
        "meta_inclination": 0.0378,
        "meta_ra_of_asc_node": 175.7781,
        "meta_arg_of_pericenter": 105.5147,
        "meta_mean_anomaly": 179.4177,
        "meta_ephemeris_type": 0,
        "meta_classification_type": "U",
        "meta_norad_cat_id": 40267,
        "meta_element_set_no": 999,
        "meta_rev_at_epoch": 4090,
        "meta_bstar": 0,
        "meta_mean_motion_dot": -2.6e-06,
        "meta_mean_motion_ddot": 0,
        "tle_line1": "1 40267U 14060A   25347.65963052 -.00000260  00000+0  00000+0 0  9994",
        "tle_line2": "2 40267   0.0378 175.7781 0000970 105.5147 179.4177  1.00273564 40901"
      },
      "geometry": {
        "type": "Point",
        "coordinates": [
          8.074314943101466,
          0.018302992521849408
        ]
      }
    },
    {
      "type": "Feature",
      "properties": {
        "norad_id": 40367,
        "name": "FENGYUN 2G",
        "group": "weather",
        "lat": -4.920968748412033,
        "lon": -33.14778925998982,
        "alt_km": 35781.12986586963,
        "timestamp": "2025-12-14T09:36:22.677440+00:00",
        "meta_object_name": "FENGYUN 2G",
        "meta_object_id": "2014-090A",
        "meta_epoch": "2025-12-13T17:07:51.695328",
        "meta_mean_motion": 1.00263873,
        "meta_eccentricity": 0.00030786,
        "meta_inclination": 5.1711,
        "meta_ra_of_asc_node": 75.0873,
        "meta_arg_of_pericenter": 199.2881,
        "meta_mean_anomaly": 164.7338,
        "meta_ephemeris_type": 0,
        "meta_classification_type": "U",
        "meta_norad_cat_id": 40367,
        "meta_element_set_no": 999,
        "meta_rev_at_epoch": 4014,
        "meta_bstar": 0,
        "meta_mean_motion_dot": -2.86e-06,
        "meta_mean_motion_ddot": 0,
        "tle_line1": "1 40367U 14090A   25347.71379277 -.00000286  00000+0  00000+0 0  9993",
        "tle_line2": "2 40367   5.1711  75.0873 0003078 199.2881 164.7338  1.00263873 40144"
      },
      "geometry": {
        "type": "Point",
        "coordinates": [
          -33.14778925998982,
          -4.920968748412033
        ]
      }
    },
    {
      "type": "Feature",
      "properties": {
        "norad_id": 40732,
        "name": "METEOSAT-11 (MSG-4)",
        "group": "weather",
        "lat": 0.7026834838974388,
        "lon": -123.3024595326401,
        "alt_km": 35783.92151705747,
        "timestamp": "2025-12-14T09:36:22.677452+00:00",
        "meta_object_name": "METEOSAT-11 (MSG-4)",
        "meta_object_id": "2015-034A",
        "meta_epoch": "2025-12-13T15:12:18.174816",
        "meta_mean_motion": 1.00267769,
        "meta_eccentricity": 9.235e-05,
        "meta_inclination": 2.7377,
        "meta_ra_of_asc_node": 71.9991,
        "meta_arg_of_pericenter": 128.2117,
        "meta_mean_anomaly": 119.7054,
        "meta_ephemeris_type": 0,
        "meta_classification_type": "U",
        "meta_norad_cat_id": 40732,
        "meta_element_set_no": 999,
        "meta_rev_at_epoch": 535,
        "meta_bstar": 0,
        "meta_mean_motion_dot": 7.6e-07,
        "meta_mean_motion_ddot": 0,
        "tle_line1": "1 40732U 15034A   25347.63354369  .00000076  00000+0  00000+0 0  9990",
        "tle_line2": "2 40732   2.7377  71.9991 0000923 128.2117 119.7054  1.00267769  5354"
      },
      "geometry": {
        "type": "Point",
        "coordinates": [
          -123.3024595326401,
          0.7026834838974388
        ]
      }
    },
    {
      "type": "Feature",
      "properties": {
        "norad_id": 41105,
        "name": "ELEKTRO-L 2",
        "group": "weather",
        "lat": 3.9796428041541247,
        "lon": -146.95539902855404,
        "alt_km": 35778.11902761846,
        "timestamp": "2025-12-14T09:36:22.677478+00:00",
        "meta_object_name": "ELEKTRO-L 2",
        "meta_object_id": "2015-074A",
        "meta_epoch": "2025-12-13T00:37:38.678304",
        "meta_mean_motion": 1.00272374,
        "meta_eccentricity": 0.00038946,
        "meta_inclination": 6.2268,
        "meta_ra_of_asc_node": 72.8255,
        "meta_arg_of_pericenter": 203.8607,
        "meta_mean_anomaly": 160.1915,
        "meta_ephemeris_type": 0,
        "meta_classification_type": "U",
        "meta_norad_cat_id": 41105,
        "meta_element_set_no": 999,
        "meta_rev_at_epoch": 3664,
        "meta_bstar": 0,
        "meta_mean_motion_dot": -1.06e-06,
        "meta_mean_motion_ddot": 0,
        "tle_line1": "1 41105U 15074A   25347.02614211 -.00000106  00000+0  00000+0 0  9992",
        "tle_line2": "2 41105   6.2268  72.8255 0003894 203.8607 160.1915  1.00272374 36644"
      },
      "geometry": {
        "type": "Point",
        "coordinates": [
          -146.95539902855404,
          3.9796428041541247
        ]
      }
    },
    {
      "type": "Feature",
      "properties": {
        "norad_id": 41752,
        "name": "INSAT-3DR",
        "group": "weather",
        "lat": -0.06564160864187425,
        "lon": -58.51998962815457,
        "alt_km": 35734.22216942432,
        "timestamp": "2025-12-14T09:36:22.677492+00:00",
        "meta_object_name": "INSAT-3DR",
        "meta_object_id": "2016-054A",
        "meta_epoch": "2025-12-13T13:48:11.230272",
        "meta_mean_motion": 1.00271015,
        "meta_eccentricity": 0.00143186,
        "meta_inclination": 0.094,
        "meta_ra_of_asc_node": 86.7306,
        "meta_arg_of_pericenter": 184.0586,
        "meta_mean_anomaly": 92.7569,
        "meta_ephemeris_type": 0,
        "meta_classification_type": "U",
        "meta_norad_cat_id": 41752,
        "meta_element_set_no": 999,
        "meta_rev_at_epoch": 3395,
        "meta_bstar": 0,
        "meta_mean_motion_dot": -6.2e-07,
        "meta_mean_motion_ddot": 0,
        "tle_line1": "1 41752U 16054A   25347.57512998 -.00000062  00000+0  00000+0 0  9999",
        "tle_line2": "2 41752   0.0940  86.7306 0014318 184.0586  92.7569  1.00271015 33958"
      },
      "geometry": {
        "type": "Point",
        "coordinates": [
          -58.51998962815457,
          -0.06564160864187425
        ]
      }
    },
    {
      "type": "Feature",
      "properties": {
        "norad_id": 41836,
        "name": "HIMAWARI-9",
        "group": "weather",
        "lat": -0.019968392485150806,
        "lon": 8.180345727042239,
        "alt_km": 35786.67379678468,
        "timestamp": "2025-12-14T09:36:22.677505+00:00",
        "meta_object_name": "HIMAWARI-9",
        "meta_object_id": "2016-064A",
        "meta_epoch": "2025-12-13T15:49:52.076928",
        "meta_mean_motion": 1.00270768,
        "meta_eccentricity": 0.00010089,
        "meta_inclination": 0.039,
        "meta_ra_of_asc_node": 96.1147,
        "meta_arg_of_pericenter": 179.1836,
        "meta_mean_anomaly": 185.5252,
        "meta_ephemeris_type": 0,
        "meta_classification_type": "U",
        "meta_norad_cat_id": 41836,
        "meta_element_set_no": 999,
        "meta_rev_at_epoch": 3335,
        "meta_bstar": 0,
        "meta_mean_motion_dot": -2.59e-06,
        "meta_mean_motion_ddot": 0,
        "tle_line1": "1 41836U 16064A   25347.65963052 -.00000259  00000+0  00000+0 0  9991",
        "tle_line2": "2 41836   0.0390  96.1147 0001008 179.1836 185.5252  1.00270768 33351"
      },
      "geometry": {
        "type": "Point",
        "coordinates": [
          8.180345727042239,
          -0.019968392485150806
        ]
      }
    }
  ]
}